[{"OBJECT_NAME":"ONEWEB-0352","OBJECT_ID":"2021-083AG","EPOCH":"2026-03-09T18:22:32.001024","MEAN_MOTION":13.13470505,"ECCENTRICITY":0.00020369,"INCLINATION":87.9033,"RA_OF_ASC_NODE":340.0129,"ARG_OF_PERICENTER":89.4703,"MEAN_ANOMALY":270.666,"EPHEMERIS_TYPE":0,"CLASSIFICATION_TYPE":"U","NORAD_CAT_ID":49216,"ELEMENT_SET_NO":999,"REV_AT_EPOCH":21797,"BSTAR":-0.00035738382,"MEAN_MOTION_DOT":-1.18e-6,"MEAN_MOTION_DDOT":0},{"OBJECT_NAME":"COSMOS 1275 DEB","OBJECT_ID":"1981-053RC","EPOCH":"2026-03-08T02:17:11.079168","MEAN_MOTION":13.50009854,"ECCENTRICITY":0.01973466,"INCLINATION":83.1416,"RA_OF_ASC_NODE":193.3235,"ARG_OF_PERICENTER":107.3279,"MEAN_ANOMALY":254.9556,"EPHEMERIS_TYPE":0,"CLASSIFICATION_TYPE":"U","NORAD_CAT_ID":42140,"ELEMENT_SET_NO":999,"REV_AT_EPOCH":57188,"BSTAR":0.00069469474,"MEAN_MOTION_DOT":5.15e-6,"MEAN_MOTION_DDOT":0}]
